CUBESX-SIRIUS-HSE       
1 47951U 21022V   24226.83919259  .00040768  00000+0  14480-2 0  9998
2 47951  97.4518 125.1484 0010391 297.8207  62.1979 15.28861304187374
CUBESX-HSE              
1 47952U 21022W   24226.85360646  .00042683  00000+0  15096-2 0  9993
2 47952  97.4521 125.2657 0010302 296.8404  63.1782 15.28989345187382
CHALLENGE ONE           
1 47956U 21022AA  24227.21222689  .00066999  00000+0  22619-2 0  9997
2 47956  97.4520 125.9675 0010265 295.5144  64.5035 15.30380559187243
GRBALPHA                
1 47959U 21022AD  24226.81439432  .00043583  00000+0  15374-2 0  9995
2 47959  97.4519 125.3855 0010248 296.8201  63.1990 15.29070746186209
ORBICRAFT-ZORKY         
1 47960U 21022AE  24226.85719416  .00049626  00000+0  16210-2 0  9998
2 47960  97.4563 126.9323 0008824 292.7839  67.2469 15.31547751186974
STECCO                  
1 47962U 21022AG  24225.05634298  .02305750  48407-2  34578-2 0  9993
2 47962  97.4383 138.6129 0011335 170.1636 189.9869 16.05836115186912
M2-A                    
1 47967U 21023C   24226.78036787  .00057633  00000+0  18865-2 0  9996
2 47967  44.9952 339.5488 0006597 338.4906  21.5700 15.30919751187594
MYRIOTA 7 (TYVAK-0152)  
1 47968U 21023D   24226.66732109  .00107939  00000+0  24215-2 0  9996
2 47968  45.0022 315.9727 0010950 343.4848  16.5683 15.42309339187871
GUNSMOKE-J 3            
1 47969U 21023E   24226.72475418  .00056831  00000+0  18629-2 0  9997
2 47969  44.9935 334.3395 0007556 355.4646   4.6169 15.30873481187650
GLOBAL-9                
1 47971U 21023G   24226.86643306  .00045748  00000+0  11706-2 0  9992
2 47971  44.9906  32.7420 0007534   0.8665 359.2234 15.38739869191282
M2-B                    
1 47973U 21023J   24226.77486868  .00057727  00000+0  18769-2 0  9998
2 47973  44.9955 339.5182 0006294 337.2811  22.7794 15.31137503161755
STARLINK-1647           
1 47978U 21024B   24227.13575686  .00035932  00000+0  24196-2 0  9997
2 47978  53.0553  26.9147 0001440  55.0847 305.0277 15.06388639187734
STARLINK-2325           
1 47979U 21024C   24226.60910755 -.00006529  00000+0 -41977-3 0  9998
2 47979  53.0556 324.2821 0001088  83.7550 276.3563 15.06407010189092
STARLINK-2312           
1 47980U 21024D   24227.22656186  .00086456  00000+0  57486-2 0  9990
2 47980  53.0566 301.6330 0000606 152.5279 207.5742 15.06424189188941
STARLINK-2303           
1 47981U 21024E   24226.79294175  .00027073  00000+0  18283-2 0  9990
2 47981  53.0570  28.4494 0000275 251.8381 108.2579 15.06423240188213
STARLINK-2317           
1 47982U 21024F   24226.97265308  .00038680  00000+0  26034-2 0  9996
2 47982  53.0537 317.6406 0003268  79.3152 280.8205 15.06369612188683
STARLINK-2308           
1 47985U 21024J   24226.71234293 -.00008079  00000+0 -52426-3 0  9996
2 47985  53.0550 323.9828 0001638  61.9151 298.2003 15.06385516189045
STARLINK-2305           
1 47989U 21024N   24226.89708378  .00019124  00000+0  12993-2 0  9994
2 47989  53.0532 297.9936 0000986  91.9765 268.1336 15.06399207188965
STARLINK-2307           
1 47990U 21024P   24227.18090749  .00013727  00000+0  93908-3 0  9994
2 47990  53.0537 296.7104 0002452  85.7542 274.3727 15.06382266188993
STARLINK-2279           
1 47991U 21024Q   24226.72800564 -.00012504  00000+0 -82320-3 0  9998
2 47991  53.0549 313.7567 0002123  38.4786 321.6354 15.06345099189244
STARLINK-2229           
1 47992U 21024R   24226.94778782  .00018475  00000+0  12568-2 0  9996
2 47992  53.0543 307.8451 0001281 104.4636 255.6495 15.06374351189309
STARLINK-2273           
1 47993U 21024S   24226.75608710  .00040994  00000+0  27560-2 0  9998
2 47993  53.0559 348.6163 0001804 112.7913 247.3267 15.06386726188764
STARLINK-2290           
1 47994U 21024T   24227.09200239  .00034331  00000+0  23129-2 0  9996
2 47994  53.0544   2.1098 0001375 121.1299 238.9825 15.06393365188080
STARLINK-2309           
1 47995U 21024U   24226.70269222  .00022416  00000+0  15225-2 0  9990
2 47995  53.0560 329.1756 0001354  87.2782 272.8362 15.06313623188989
STARLINK-2266           
1 47997U 21024W   24226.74183216  .00024782  00000+0  16780-2 0  9999
2 47997  53.0554   3.6826 0001607 112.2213 247.8947 15.06371996188556
STARLINK-2296           
1 47998U 21024X   24226.68332594  .00019653  00000+0  13342-2 0  9990
2 47998  53.0517 339.1873 0001472  64.8538 295.2604 15.06409950188837
