OBJECT_NAME,OBJECT_ID,EPOCH,MEAN_MOTION,ECCENTRICITY,INCLINATION,RA_OF_ASC_NODE,ARG_OF_PERICENTER,MEAN_ANOMALY,EPHEMERIS_TYPE,CLASSIFICATION_TYPE,NORAD_CAT_ID,ELEMENT_SET_NO,REV_AT_EPOCH,BSTAR,MEAN_MOTION_DOT,MEAN_MOTION_DDOT
CUBESX-SIRIUS-HSE,2021-022V,2024-08-13T20:08:26.239776,15.28861304,.0010391,97.4518,125.1484,297.8207,62.1979,0,U,47951,999,18737,.1448E-2,.40768E-3,0
CUBESX-HSE,2021-022W,2024-08-13T20:29:11.598144,15.28989345,.0010302,97.4521,125.2657,296.8404,63.1782,0,U,47952,999,18738,.15096E-2,.42683E-3,0
CHALLENGE ONE,2021-022AA,2024-08-14T05:05:36.403296,15.30380559,.0010265,97.4520,125.9675,295.5144,64.5035,0,U,47956,999,18724,.22619E-2,.66999E-3,0
GRBALPHA,2021-022AD,2024-08-13T19:32:43.669248,15.29070746,.0010248,97.4519,125.3855,296.8201,63.1990,0,U,47959,999,18620,.15374E-2,.43583E-3,0
ORBICRAFT-ZORKY,2021-022AE,2024-08-13T20:34:21.575424,15.31547751,.0008824,97.4563,126.9323,292.7839,67.2469,0,U,47960,999,18697,.1621E-2,.49626E-3,0
STECCO,2021-022AG,2024-08-12T01:21:08.033472,16.05836115,.0011335,97.4383,138.6129,170.1636,189.9869,0,U,47962,999,18691,.34578E-2,.230575E-1,.48407E-2
M2-A,2021-023C,2024-08-13T18:43:43.783968,15.30919751,.0006597,44.9952,339.5488,338.4906,21.5700,0,U,47967,999,18759,.18865E-2,.57633E-3,0
MYRIOTA 7 (TYVAK-0152),2021-023D,2024-08-13T16:00:56.542176,15.42309339,.001095,45.0022,315.9727,343.4848,16.5683,0,U,47968,999,18787,.24215E-2,.107939E-2,0
GUNSMOKE-J 3,2021-023E,2024-08-13T17:23:38.761152,15.30873481,.0007556,44.9935,334.3395,355.4646,4.6169,0,U,47969,999,18765,.18629E-2,.56831E-3,0
GLOBAL-9,2021-023G,2024-08-13T20:47:39.816384,15.38739869,.0007534,44.9906,32.7420,0.8665,359.2234,0,U,47971,999,19128,.11706E-2,.45748E-3,0
M2-B,2021-023J,2024-08-13T18:35:48.653952,15.31137503,.0006294,44.9955,339.5182,337.2811,22.7794,0,U,47973,999,16175,.18769E-2,.57727E-3,0
STARLINK-1647,2021-024B,2024-08-14T03:15:29.392704,15.06388639,.000144,53.0553,26.9147,55.0847,305.0277,0,U,47978,999,18773,.24196E-2,.35932E-3,0
STARLINK-2325,2021-024C,2024-08-13T14:37:06.892320,15.06407010,.0001088,53.0556,324.2821,83.7550,276.3563,0,U,47979,999,18909,-.41977E-3,-.6529E-4,0
STARLINK-2312,2021-024D,2024-08-14T05:26:14.944704,15.06424189,.0000606,53.0566,301.6330,152.5279,207.5742,0,U,47980,999,18894,.57486E-2,.86456E-3,0
STARLINK-2303,2021-024E,2024-08-13T19:01:50.167200,15.06423240,.0000275,53.0570,28.4494,251.8381,108.2579,0,U,47981,999,18821,.18283E-2,.27073E-3,0
STARLINK-2317,2021-024F,2024-08-13T23:20:37.226112,15.06369612,.0003268,53.0537,317.6406,79.3152,280.8205,0,U,47982,999,18868,.26034E-2,.3868E-3,0
STARLINK-2308,2021-024J,2024-08-13T17:05:46.429152,15.06385516,.0001638,53.0550,323.9828,61.9151,298.2003,0,U,47985,999,18904,-.52426E-3,-.8079E-4,0
STARLINK-2305,2021-024N,2024-08-13T21:31:48.038592,15.06399207,.0000986,53.0532,297.9936,91.9765,268.1336,0,U,47989,999,18896,.12993E-2,.19124E-3,0
STARLINK-2307,2021-024P,2024-08-14T04:20:30.407136,15.06382266,.0002452,53.0537,296.7104,85.7542,274.3727,0,U,47990,999,18899,.93908E-3,.13727E-3,0
STARLINK-2279,2021-024Q,2024-08-13T17:28:19.687296,15.06345099,.0002123,53.0549,313.7567,38.4786,321.6354,0,U,47991,999,18924,-.8232E-3,-.12504E-3,0
STARLINK-2229,2021-024R,2024-08-13T22:44:48.867648,15.06374351,.0001281,53.0543,307.8451,104.4636,255.6495,0,U,47992,999,18930,.12568E-2,.18475E-3,0
STARLINK-2273,2021-024S,2024-08-13T18:08:45.925440,15.06386726,.0001804,53.0559,348.6163,112.7913,247.3267,0,U,47993,999,18876,.2756E-2,.40994E-3,0
STARLINK-2290,2021-024T,2024-08-14T02:12:29.006496,15.06393365,.0001375,53.0544,2.1098,121.1299,238.9825,0,U,47994,999,18808,.23129E-2,.34331E-3,0
STARLINK-2309,2021-024U,2024-08-13T16:51:52.607808,15.06313623,.0001354,53.0560,329.1756,87.2782,272.8362,0,U,47995,999,18898,.15225E-2,.22416E-3,0
STARLINK-2266,2021-024W,2024-08-13T17:48:14.298624,15.06371996,.0001607,53.0554,3.6826,112.2213,247.8947,0,U,47997,999,18855,.1678E-2,.24782E-3,0
STARLINK-2296,2021-024X,2024-08-13T16:23:59.361216,15.06409950,.0001472,53.0517,339.1873,64.8538,295.2604,0,U,47998,999,18883,.13342E-2,.19653E-3,0
